[{"OBJECT_NAME":"OBJECT M","OBJECT_ID":"2025-155M","EPOCH":"2026-03-09T22:37:12.666144","MEAN_MOTION":15.33288683,"ECCENTRICITY":0.00088001,"INCLINATION":97.4429,"RA_OF_ASC_NODE":38.1052,"ARG_OF_PERICENTER":139.1253,"MEAN_ANOMALY":221.0651,"EPHEMERIS_TYPE":0,"CLASSIFICATION_TYPE":"U","NORAD_CAT_ID":64887,"ELEMENT_SET_NO":999,"REV_AT_EPOCH":6565,"BSTAR":0.00087834095,"MEAN_MOTION_DOT":0.00028279,"MEAN_MOTION_DDOT":0},{"OBJECT_NAME":"STARLINK-35321","OBJECT_ID":"2025-235S","EPOCH":"2026-03-09T17:27:03.303648","MEAN_MOTION":15.30206764,"ECCENTRICITY":8.802e-5,"INCLINATION":53.1585,"RA_OF_ASC_NODE":245.3458,"ARG_OF_PERICENTER":143.6365,"MEAN_ANOMALY":216.4696,"EPHEMERIS_TYPE":0,"CLASSIFICATION_TYPE":"U","NORAD_CAT_ID":66074,"ELEMENT_SET_NO":999,"REV_AT_EPOCH":2292,"BSTAR":0.00081423312,"MEAN_MOTION_DOT":0.00023839,"MEAN_MOTION_DDOT":0}]
